OBJECT_NAME,OBJECT_ID,EPOCH,MEAN_MOTION,ECCENTRICITY,INCLINATION,RA_OF_ASC_NODE,ARG_OF_PERICENTER,MEAN_ANOMALY,EPHEMERIS_TYPE,CLASSIFICATION_TYPE,NORAD_CAT_ID,ELEMENT_SET_NO,REV_AT_EPOCH,BSTAR,MEAN_MOTION_DOT,MEAN_MOTION_DDOT
CINEMA-3 (KHUSAT-2),2013-066L,2026-07-23T05:15:30.783456,14.78368457,.00913274,97.8369,115.4690,95.3468,265.8171,0,U,39426,999,67977,.16469616E-3,.123E-4,0
TRITON-1,2013-066M,2026-07-23T06:55:34.754880,14.81816807,.00911306,97.8207,113.2691,116.0763,244.9865,0,U,39427,999,67943,.21444276E-3,.1764E-4,0
DELFI-N3XT,2013-066N,2026-07-23T05:56:47.778144,14.95429875,.0075789,97.8307,124.5293,86.7891,274.1997,0,U,39428,999,68001,.62821389E-3,.7297E-4,0
GOMX-1,2013-066Q,2026-07-23T06:34:12.715392,14.69554635,.01275589,97.6471,42.4595,322.1717,37.0576,0,U,39430,999,67521,.13686331E-3,.867E-5,0
BRITE-PL1 (LEM),2013-066R,2026-07-23T05:57:41.691744,14.51393492,.01884301,97.7984,314.0059,258.9735,99.0218,0,U,39431,999,66916,.10325428E-3,.467E-5,0
ICUBE-1,2013-066S,2026-07-22T22:10:10.285824,15.26629487,.00153376,97.5712,190.0623,197.0223,163.0503,0,U,39432,999,68986,.54705272E-3,.14321E-3,0
VELOX-PII,2013-066Y,2026-07-23T06:54:41.176512,14.93280701,.00513969,97.8761,155.7026,221.9692,137.7584,0,U,39438,999,68322,.21626475E-3,.2261E-4,0
CUBEBUG-2 (LO-74),2013-066AA,2026-07-23T07:11:01.273056,14.94006519,.00554797,97.8916,153.4406,267.8104,91.6762,0,U,39440,999,68238,.2355357E-3,.2525E-4,0
NEE-02 KRYSAOR,2013-066AB,2026-07-23T06:49:09.689952,14.86763677,.00647444,97.8897,143.2466,312.4198,47.1551,0,U,39441,999,68156,.20261932E-3,.1814E-4,0
FUNCUBE-1 (AO-73),2013-066AE,2026-07-23T04:17:58.808832,15.09903824,.00381344,97.8300,176.3916,81.8391,278.7160,0,U,39444,999,68509,.46638869E-3,.7622E-4,0
HINCUBE,2013-066AF,2026-07-22T15:23:12.330816,15.08658840,.00350086,97.7994,172.7090,90.3040,270.2199,0,U,39445,999,68487,.45703945E-3,.7195E-4,0
UWE-3,2013-066AG,2026-07-23T07:21:38.012544,14.97241976,.00478561,97.8729,160.6343,196.8794,163.0837,0,U,39446,999,68298,.26351513E-3,.3059E-4,0
SMDC ONE 2.4,2013-072H,2026-07-23T06:45:07.652448,15.19015329,.01484145,120.4878,131.5189,56.9288,304.5942,0,U,39469,999,12331,.66272335E-3,.18421E-3,0
CP8 (IPEX),2013-072K,2026-07-23T03:59:32.851680,15.08494624,.01697929,120.4681,75.1710,39.9313,321.4109,0,U,39471,999,12066,.36974044E-3,.7746E-4,0
COSMOS 2488 (RODNIK-S 7),2013-076A,2026-07-23T06:15:42.272352,12.42906825,.00203317,82.4858,146.2226,20.7001,339.4898,0,U,39483,999,57037,.65624781E-3,.101E-5,0
COSMOS 2489 (RODNIK-S 8),2013-076B,2026-07-23T07:37:00.175296,12.42880438,.00221379,82.4895,147.5781,20.2332,339.9621,0,U,39484,999,57043,.11500355E-3,.26E-6,0
COSMOS 2490 (RODNIK-S 9),2013-076C,2026-07-23T06:56:35.387808,12.42879360,.00226035,82.4842,145.6473,35.3205,324.9367,0,U,39485,999,57036,.85656594E-4,.22E-6,0
AIST-1 (RS41),2013-078C,2026-07-23T06:37:27.917184,14.96148251,.00175159,82.4137,235.9115,151.6382,208.5798,0,U,39492,999,68064,.52506348E-4,.619E-5,0
KAZEOSAT 1,2014-024A,2026-07-23T07:26:58.069248,14.42039433,.00012008,98.3189,275.8555,90.4955,269.6372,0,U,39731,999,64376,.43944993E-4,.102E-5,0
COSMOS 2496 (RODNIK-S 10),2014-028A,2026-07-23T07:51:15.810912,12.42879566,.00205237,82.4440,86.0946,3.6951,356.4277,0,U,39761,999,55200,-.27820056E-3,-.29E-6,0
COSMOS 2497 (RODNIK-S 11),2014-028B,2026-07-23T07:15:00.320256,12.42895307,.00209806,82.4488,87.8141,358.7189,1.3834,0,U,39762,999,55200,-.43569827E-3,-.51E-6,0
COSMOS 2498 (RODNIK-S 12),2014-028C,2026-07-23T06:39:09.546048,12.42980790,.00216585,82.4448,86.3011,358.2771,1.8230,0,U,39763,999,55203,-.10171655E-2,-.131E-5,0
COSMOS 2499 (RS47),2014-028E,2026-07-23T07:24:29.908800,12.82903402,.02302769,82.4465,228.0532,276.8723,80.6233,0,U,39765,999,56965,.37151272E-4,.19E-6,0
HODOYOSHI-4,2014-033B,2026-07-23T06:36:50.817888,14.88205160,.00233841,97.5471,27.3596,181.9045,178.2088,0,U,40011,999,65417,.20113795E-3,.1812E-4,0
UNISAT-6,2014-033C,2026-07-23T05:40:03.888768,14.88391327,.00436622,97.7919,356.3255,310.7239,49.0189,0,U,40012,999,65152,.21718598E-3,.199E-4,0
DEIMOS-2,2014-033D,2026-07-23T06:55:47.100576,14.93813350,.0001531,97.5787,77.5018,103.2207,256.9185,0,U,40013,999,64311,.99824988E-4,.1005E-4,0
BUGSAT-1 (TITA),2014-033E,2026-07-23T06:40:20.095104,15.15945185,.00287039,98.0424,298.9466,59.5702,300.8360,0,U,40014,999,66130,.4070867E-3,.7814E-4,0
SAUDISAT 4,2014-033G,2026-07-23T03:57:20.361600,14.79581727,.00436901,97.7628,349.0652,317.6757,42.1087,0,U,40016,999,65139,.67431753E-4,.46E-5,0
APRIZESAT 9,2014-033J,2026-07-23T07:35:08.454048,14.74260317,.00674735,97.9103,336.6404,84.3676,276.5222,0,U,40018,999,64888,.86232569E-4,.539E-5,0
BRITE-CA1 (TORONTO),2014-033L,2026-07-23T07:40:22.306368,14.72735524,.00790711,97.9779,332.5905,160.3248,200.1041,0,U,40020,999,64753,.15678039E-3,.998E-5,0
