{"epoch":1784817359,"count":18317,"objects":[{"id":"39426","name":"CINEMA 3","type":"PAYLOAD","l1":"1 39426U 13066L   26204.21910629  .00001230  00000-0  16470-3 0  9991","l2":"2 39426  97.8369 115.4690 0091327  95.3468 265.8171 14.78368457679770"},{"id":"39427","name":"TRITON 1","type":"PAYLOAD","l1":"1 39427U 13066M   26204.28859670  .00001764  00000-0  21444-3 0  9996","l2":"2 39427  97.8207 113.2691 0091131 116.0763 244.9865 14.81816807679433"},{"id":"39428","name":"DELFI-N3XT","type":"PAYLOAD","l1":"1 39428U 13066N   26204.24777521  .00007297  00000-0  62821-3 0  9998","l2":"2 39428  97.8307 124.5293 0075789  86.7891 274.1997 14.95429875680011"},{"id":"39430","name":"GOMX 1","type":"PAYLOAD","l1":"1 39430U 13066Q   26204.27375828  .00000867  00000-0  13686-3 0  9999","l2":"2 39430  97.6471  42.4595 0127559 322.1717  37.0576 14.69554635675213"},{"id":"39431","name":"BRITE-PL","type":"PAYLOAD","l1":"1 39431U 13066R   26204.24839921  .00000467  00000-0  10325-3 0  9999","l2":"2 39431  97.7984 314.0059 0188430 258.9735  99.0218 14.51393492669169"},{"id":"39432","name":"ICUBE 1","type":"PAYLOAD","l1":"1 39432U 13066S   26203.92373016  .00014321  00000-0  54705-3 0  9996","l2":"2 39432  97.5712 190.0623 0015338 197.0223 163.0503 15.26629487689864"},{"id":"39438","name":"VELOX-P 2","type":"PAYLOAD","l1":"1 39438U 13066Y   26204.28797658  .00002261  00000-0  21626-3 0  9990","l2":"2 39438  97.8761 155.7026 0051397 221.9692 137.7584 14.93280701683220"},{"id":"39440","name":"CUBEBUG 2","type":"PAYLOAD","l1":"1 39440U 13066AA  26204.29932029  .00002525  00000-0  23554-3 0  9992","l2":"2 39440  97.8916 153.4406 0055480 267.8104  91.6762 14.94006519682382"},{"id":"39441","name":"NEE 02 KRYSAOR","type":"PAYLOAD","l1":"1 39441U 13066AB  26204.28413993  .00001814  00000-0  20262-3 0  9999","l2":"2 39441  97.8897 143.2466 0064744 312.4198  47.1551 14.86763677681564"},{"id":"39444","name":"FUNCUBE 1","type":"PAYLOAD","l1":"1 39444U 13066AE  26204.17915288  .00007622  00000-0  46639-3 0  9993","l2":"2 39444  97.8300 176.3916 0038134  81.8391 278.7160 15.09903824685095"},{"id":"39445","name":"HINCUBE","type":"PAYLOAD","l1":"1 39445U 13066AF  26203.64111494  .00007195  00000-0  45704-3 0  9999","l2":"2 39445  97.7994 172.7090 0035009  90.3040 270.2199 15.08658840684879"},{"id":"39446","name":"UWE-3","type":"PAYLOAD","l1":"1 39446U 13066AG  26204.30668996  .00003059  00000-0  26352-3 0  9991","l2":"2 39446  97.8729 160.6343 0047856 196.8794 163.0837 14.97241976682988"},{"id":"39469","name":"MCUBED-2","type":"PAYLOAD","l1":"1 39469U 13072H   26204.28133857  .00018421  00000-0  66272-3 0  9997","l2":"2 39469 120.4878 131.5189 0148414  56.9288 304.5942 15.19015329123314"},{"id":"39471","name":"IPEX","type":"PAYLOAD","l1":"1 39471U 13072K   26204.16635245  .00007746  00000-0  36974-3 0  9999","l2":"2 39471 120.4681  75.1710 0169793  39.9313 321.4109 15.08494624120660"},{"id":"39483","name":"COSMOS 2488","type":"PAYLOAD","l1":"1 39483U 13076A   26204.26090593  .00000101  00000-0  65625-3 0  9991","l2":"2 39483  82.4858 146.2226 0020332  20.7001 339.4898 12.42906825570372"},{"id":"39484","name":"COSMOS 2489","type":"PAYLOAD","l1":"1 39484U 13076B   26204.31736314  .00000026  00000-0  11500-3 0  9995","l2":"2 39484  82.4895 147.5781 0022138  20.2332 339.9621 12.42880438570439"},{"id":"39485","name":"COSMOS 2490","type":"PAYLOAD","l1":"1 39485U 13076C   26204.28929847  .00000022  00000-0  85657-4 0  9998","l2":"2 39485  82.4842 145.6473 0022604  35.3205 324.9367 12.42879360570368"},{"id":"39492","name":"AIST 1","type":"PAYLOAD","l1":"1 39492U 13078C   26204.27601756  .00000619  00000-0  52506-4 0  9992","l2":"2 39492  82.4137 235.9115 0017516 151.6382 208.5798 14.96148251680640"},{"id":"39731","name":"KAZEOSAT 1","type":"PAYLOAD","l1":"1 39731U 14024A   26204.31039432  .00000102  00000-0  43945-4 0  9995","l2":"2 39731  98.3189 275.8555 0001201  90.4955 269.6372 14.42039433643760"},{"id":"39761","name":"COSMOS 2496","type":"PAYLOAD","l1":"1 39761U 14028A   26204.32726633 -.00000029  00000-0 -27820-3 0  9992","l2":"2 39761  82.4440  86.0946 0020524   3.6951 356.4277 12.42879566552006"},{"id":"39762","name":"COSMOS 2497","type":"PAYLOAD","l1":"1 39762U 14028B   26204.30208704 -.00000051  00000-0 -43570-3 0  9990","l2":"2 39762  82.4488  87.8141 0020981 358.7189   1.3834 12.42895307552005"},{"id":"39763","name":"COSMOS 2498","type":"PAYLOAD","l1":"1 39763U 14028C   26204.27719382 -.00000131  00000-0 -10172-2 0  9996","l2":"2 39763  82.4448  86.3011 0021658 358.2771   1.8230 12.42980790552035"},{"id":"39765","name":"COSMOS 2499","type":"PAYLOAD","l1":"1 39765U 14028E   26204.30867950  .00000019  00000-0  37151-4 0  9998","l2":"2 39765  82.4465 228.0532 0230277 276.8723  80.6233 12.82903402569653"},{"id":"40011","name":"HODOYOSHI 4","type":"PAYLOAD","l1":"1 40011U 14033B   26204.27558817  .00001812  00000-0  20114-3 0  9997","l2":"2 40011  97.5471  27.3596 0023384 181.9045 178.2088 14.88205160654173"},{"id":"40012","name":"UNISAT 6","type":"PAYLOAD","l1":"1 40012U 14033C   26204.23615612  .00001990  00000-0  21719-3 0  9990","l2":"2 40012  97.7919 356.3255 0043662 310.7239  49.0189 14.88391327651522"},{"id":"40013","name":"DEIMOS 2","type":"PAYLOAD","l1":"1 40013U 14033D   26204.28873959  .00001005  00000-0  99825-4 0  9997","l2":"2 40013  97.5787  77.5018 0001531 103.2207 256.9185 14.93813350643114"},{"id":"40014","name":"BUGSAT 1","type":"PAYLOAD","l1":"1 40014U 14033E   26204.27801036  .00007814  00000-0  40709-3 0  9994","l2":"2 40014  98.0424 298.9466 0028704  59.5702 300.8360 15.15945185661301"},{"id":"40016","name":"SAUDISAT 4","type":"PAYLOAD","l1":"1 40016U 14033G   26204.16481900  .00000460  00000-0  67432-4 0  9991","l2":"2 40016  97.7628 349.0652 0043690 317.6757  42.1087 14.79581727651396"},{"id":"40018","name":"APRIZESAT 9","type":"PAYLOAD","l1":"1 40018U 14033J   26204.31607007  .00000539  00000-0  86233-4 0  9995","l2":"2 40018  97.9103 336.6404 0067473  84.3676 276.5222 14.74260317648886"},{"id":"40020","name":"BRITE TORONTO","type":"PAYLOAD","l1":"1 40020U 14033L   26204.31970262  .00000998  00000-0  15678-3 0  9997","l2":"2 40020  97.9779 332.5905 0079071 160.3248 200.1041 14.72735524647534"}]}